HAWK-8A                 
1 59443U 24066B   26068.40724718  .00002325  00000+0  20899-3 0  9990
2 59443  45.5937  72.3645 0004214 254.4969 105.5447 14.98766556104869
STARLINK-36173          
1 67210U 25304U   26068.68512752  .00004030  00000+0  33818-3 0  9990
2 67210  70.0013 174.4831 0003605 269.9682  90.1065 14.99143783 13883
